[{"OBJECT_NAME":"ONEWEB-0673","OBJECT_ID":"2023-029AN","EPOCH":"2025-09-26T19:17:37.045536","MEAN_MOTION":13.19725881,"ECCENTRICITY":0.00016908,"INCLINATION":87.929,"RA_OF_ASC_NODE":357.3345,"ARG_OF_PERICENTER":107.0718,"MEAN_ANOMALY":253.06,"EPHEMERIS_TYPE":0,"CLASSIFICATION_TYPE":"U","NORAD_CAT_ID":55832,"ELEMENT_SET_NO":999,"REV_AT_EPOCH":12416,"BSTAR":0.00011028076,"MEAN_MOTION_DOT":5.7e-7,"MEAN_MOTION_DDOT":0},{"OBJECT_NAME":"ONEWEB-0674","OBJECT_ID":"2023-029AP","EPOCH":"2025-09-26T17:41:10.244832","MEAN_MOTION":13.14501217,"ECCENTRICITY":0.00015147,"INCLINATION":87.9076,"RA_OF_ASC_NODE":342.2009,"ARG_OF_PERICENTER":84.7509,"MEAN_ANOMALY":275.3793,"EPHEMERIS_TYPE":0,"CLASSIFICATION_TYPE":"U","NORAD_CAT_ID":55833,"ELEMENT_SET_NO":999,"REV_AT_EPOCH":12480,"BSTAR":0.00062727659,"MEAN_MOTION_DOT":2.45e-6,"MEAN_MOTION_DDOT":0},{"OBJECT_NAME":"ONEWEB-0675","OBJECT_ID":"2023-029AQ","EPOCH":"2025-09-26T17:51:11.432448","MEAN_MOTION":13.19725877,"ECCENTRICITY":0.00020783,"INCLINATION":87.9278,"RA_OF_ASC_NODE":357.3888,"ARG_OF_PERICENTER":105.6151,"MEAN_ANOMALY":254.5211,"EPHEMERIS_TYPE":0,"CLASSIFICATION_TYPE":"U","NORAD_CAT_ID":55834,"ELEMENT_SET_NO":999,"REV_AT_EPOCH":12417,"BSTAR":-2.5201857e-5,"MEAN_MOTION_DOT":3.0e-8,"MEAN_MOTION_DDOT":0},{"OBJECT_NAME":"ONEWEB-0720","OBJECT_ID":"2023-029AR","EPOCH":"2025-09-26T19:28:59.250432","MEAN_MOTION":13.19726258,"ECCENTRICITY":0.00014848,"INCLINATION":87.928,"RA_OF_ASC_NODE":357.3722,"ARG_OF_PERICENTER":109.0081,"MEAN_ANOMALY":251.1213,"EPHEMERIS_TYPE":0,"CLASSIFICATION_TYPE":"U","NORAD_CAT_ID":55835,"ELEMENT_SET_NO":999,"REV_AT_EPOCH":12410,"BSTAR":1.8096344e-5,"MEAN_MOTION_DOT":2.0e-7,"MEAN_MOTION_DDOT":0},{"OBJECT_NAME":"ONEWEB-0537","OBJECT_ID":"2023-043A","EPOCH":"2025-09-26T22:35:14.408736","MEAN_MOTION":13.16594017,"ECCENTRICITY":0.00020695,"INCLINATION":87.8978,"RA_OF_ASC_NODE":281.2238,"ARG_OF_PERICENTER":93.5165,"MEAN_ANOMALY":266.6203,"EPHEMERIS_TYPE":0,"CLASSIFICATION_TYPE":"U","NORAD_CAT_ID":56046,"ELEMENT_SET_NO":999,"REV_AT_EPOCH":12432,"BSTAR":0.00021941317,"MEAN_MOTION_DOT":9.7e-7,"MEAN_MOTION_DDOT":0},{"OBJECT_NAME":"ONEWEB-0538","OBJECT_ID":"2023-043B","EPOCH":"2025-09-26T22:26:04.741440","MEAN_MOTION":13.16595159,"ECCENTRICITY":0.00019026,"INCLINATION":87.8967,"RA_OF_ASC_NODE":281.2358,"ARG_OF_PERICENTER":99.475,"MEAN_ANOMALY":260.6596,"EPHEMERIS_TYPE":0,"CLASSIFICATION_TYPE":"U","NORAD_CAT_ID":56047,"ELEMENT_SET_NO":999,"REV_AT_EPOCH":12433,"BSTAR":0.00014209928,"MEAN_MOTION_DOT":6.7e-7,"MEAN_MOTION_DDOT":0},{"OBJECT_NAME":"ONEWEB-0546","OBJECT_ID":"2023-043C","EPOCH":"2025-09-26T13:00:41.530176","MEAN_MOTION":13.165952,"ECCENTRICITY":0.00025742,"INCLINATION":87.8978,"RA_OF_ASC_NODE":281.2976,"ARG_OF_PERICENTER":90.3631,"MEAN_ANOMALY":269.7795,"EPHEMERIS_TYPE":0,"CLASSIFICATION_TYPE":"U","NORAD_CAT_ID":56048,"ELEMENT_SET_NO":999,"REV_AT_EPOCH":12427,"BSTAR":-1.770771e-5,"MEAN_MOTION_DOT":6.0e-8,"MEAN_MOTION_DDOT":0},{"OBJECT_NAME":"ONEWEB-0547","OBJECT_ID":"2023-043D","EPOCH":"2025-09-26T14:22:24.342240","MEAN_MOTION":13.21825612,"ECCENTRICITY":0.00017883,"INCLINATION":87.9181,"RA_OF_ASC_NODE":296.5737,"ARG_OF_PERICENTER":97.6601,"MEAN_ANOMALY":262.4736,"EPHEMERIS_TYPE":0,"CLASSIFICATION_TYPE":"U","NORAD_CAT_ID":56049,"ELEMENT_SET_NO":999,"REV_AT_EPOCH":12340,"BSTAR":-0.00014250921,"MEAN_MOTION_DOT":-4.6e-7,"MEAN_MOTION_DDOT":0},{"OBJECT_NAME":"ONEWEB-0548","OBJECT_ID":"2023-043E","EPOCH":"2025-09-26T22:44:19.094208","MEAN_MOTION":13.16596898,"ECCENTRICITY":0.00017243,"INCLINATION":87.8955,"RA_OF_ASC_NODE":281.2371,"ARG_OF_PERICENTER":75.3766,"MEAN_ANOMALY":284.7556,"EPHEMERIS_TYPE":0,"CLASSIFICATION_TYPE":"U","NORAD_CAT_ID":56050,"ELEMENT_SET_NO":999,"REV_AT_EPOCH":12432,"BSTAR":0.00022403913,"MEAN_MOTION_DOT":9.9e-7,"MEAN_MOTION_DDOT":0},{"OBJECT_NAME":"ONEWEB-0549","OBJECT_ID":"2023-043F","EPOCH":"2025-09-26T14:09:54.953568","MEAN_MOTION":13.21825567,"ECCENTRICITY":0.00018001,"INCLINATION":87.9184,"RA_OF_ASC_NODE":296.5909,"ARG_OF_PERICENTER":102.1186,"MEAN_ANOMALY":258.015,"EPHEMERIS_TYPE":0,"CLASSIFICATION_TYPE":"U","NORAD_CAT_ID":56051,"ELEMENT_SET_NO":999,"REV_AT_EPOCH":12340,"BSTAR":-3.9432649e-5,"MEAN_MOTION_DOT":-3.0e-8,"MEAN_MOTION_DDOT":0},{"OBJECT_NAME":"ONEWEB-0550","OBJECT_ID":"2023-043G","EPOCH":"2025-09-26T13:51:44.722080","MEAN_MOTION":13.2182524,"ECCENTRICITY":0.0001898,"INCLINATION":87.9185,"RA_OF_ASC_NODE":296.5877,"ARG_OF_PERICENTER":88.0639,"MEAN_ANOMALY":272.0713,"EPHEMERIS_TYPE":0,"CLASSIFICATION_TYPE":"U","NORAD_CAT_ID":56052,"ELEMENT_SET_NO":999,"REV_AT_EPOCH":12340,"BSTAR":5.3342586e-5,"MEAN_MOTION_DOT":3.5e-7,"MEAN_MOTION_DDOT":0},{"OBJECT_NAME":"ONEWEB-0551","OBJECT_ID":"2023-043H","EPOCH":"2025-09-26T14:47:53.076192","MEAN_MOTION":13.15546768,"ECCENTRICITY":0.00017153,"INCLINATION":87.9005,"RA_OF_ASC_NODE":311.834,"ARG_OF_PERICENTER":101.4223,"MEAN_ANOMALY":258.71,"EPHEMERIS_TYPE":0,"CLASSIFICATION_TYPE":"U","NORAD_CAT_ID":56053,"ELEMENT_SET_NO":999,"REV_AT_EPOCH":12174,"BSTAR":-0.0004548237,"MEAN_MOTION_DOT":-1.58e-6,"MEAN_MOTION_DDOT":0},{"OBJECT_NAME":"ONEWEB-0552","OBJECT_ID":"2023-043J","EPOCH":"2025-09-26T13:42:38.828736","MEAN_MOTION":13.21827101,"ECCENTRICITY":0.00016027,"INCLINATION":87.9184,"RA_OF_ASC_NODE":296.5975,"ARG_OF_PERICENTER":96.4475,"MEAN_ANOMALY":263.6841,"EPHEMERIS_TYPE":0,"CLASSIFICATION_TYPE":"U","NORAD_CAT_ID":56054,"ELEMENT_SET_NO":999,"REV_AT_EPOCH":12340,"BSTAR":0.00015352217,"MEAN_MOTION_DOT":7.6e-7,"MEAN_MOTION_DDOT":0},{"OBJECT_NAME":"ONEWEB-0553","OBJECT_ID":"2023-043K","EPOCH":"2025-09-26T22:16:59.330208","MEAN_MOTION":13.16595642,"ECCENTRICITY":0.00022229,"INCLINATION":87.8966,"RA_OF_ASC_NODE":281.2354,"ARG_OF_PERICENTER":86.427,"MEAN_ANOMALY":273.7115,"EPHEMERIS_TYPE":0,"CLASSIFICATION_TYPE":"U","NORAD_CAT_ID":56055,"ELEMENT_SET_NO":999,"REV_AT_EPOCH":12433,"BSTAR":0.00014738109,"MEAN_MOTION_DOT":6.9e-7,"MEAN_MOTION_DDOT":0},{"OBJECT_NAME":"ONEWEB-0554","OBJECT_ID":"2023-043L","EPOCH":"2025-09-26T12:51:35.196192","MEAN_MOTION":13.16594182,"ECCENTRICITY":0.00018304,"INCLINATION":87.8959,"RA_OF_ASC_NODE":281.3373,"ARG_OF_PERICENTER":82.9862,"MEAN_ANOMALY":277.1477,"EPHEMERIS_TYPE":0,"CLASSIFICATION_TYPE":"U","NORAD_CAT_ID":56056,"ELEMENT_SET_NO":999,"REV_AT_EPOCH":12426,"BSTAR":-6.8266732e-5,"MEAN_MOTION_DOT":-1.3e-7,"MEAN_MOTION_DDOT":0},{"OBJECT_NAME":"ONEWEB-0555","OBJECT_ID":"2023-043M","EPOCH":"2025-09-26T22:53:27.094848","MEAN_MOTION":13.1659264,"ECCENTRICITY":0.00023865,"INCLINATION":87.8968,"RA_OF_ASC_NODE":281.225,"ARG_OF_PERICENTER":86.4669,"MEAN_ANOMALY":273.6735,"EPHEMERIS_TYPE":0,"CLASSIFICATION_TYPE":"U","NORAD_CAT_ID":56057,"ELEMENT_SET_NO":999,"REV_AT_EPOCH":12432,"BSTAR":0.00032305564,"MEAN_MOTION_DOT":1.36e-6,"MEAN_MOTION_DDOT":0},{"OBJECT_NAME":"ONEWEB-0557","OBJECT_ID":"2023-043N","EPOCH":"2025-09-26T14:06:48.360672","MEAN_MOTION":13.16595126,"ECCENTRICITY":0.00026112,"INCLINATION":87.8959,"RA_OF_ASC_NODE":281.3152,"ARG_OF_PERICENTER":62.8198,"MEAN_ANOMALY":297.3199,"EPHEMERIS_TYPE":0,"CLASSIFICATION_TYPE":"U","NORAD_CAT_ID":56058,"ELEMENT_SET_NO":999,"REV_AT_EPOCH":12427,"BSTAR":-0.00021951051,"MEAN_MOTION_DOT":-7.1e-7,"MEAN_MOTION_DDOT":0},{"OBJECT_NAME":"ONEWEB-0558","OBJECT_ID":"2023-043P","EPOCH":"2025-09-26T15:22:35.028480","MEAN_MOTION":13.21825092,"ECCENTRICITY":0.00017269,"INCLINATION":87.918,"RA_OF_ASC_NODE":296.5786,"ARG_OF_PERICENTER":106.5294,"MEAN_ANOMALY":253.603,"EPHEMERIS_TYPE":0,"CLASSIFICATION_TYPE":"U","NORAD_CAT_ID":56059,"ELEMENT_SET_NO":999,"REV_AT_EPOCH":12342,"BSTAR":9.6116872e-5,"MEAN_MOTION_DOT":5.3e-7,"MEAN_MOTION_DDOT":0},{"OBJECT_NAME":"ONEWEB-0559","OBJECT_ID":"2023-043Q","EPOCH":"2025-09-26T15:06:41.387616","MEAN_MOTION":13.21824593,"ECCENTRICITY":0.00015148,"INCLINATION":87.9183,"RA_OF_ASC_NODE":296.5734,"ARG_OF_PERICENTER":97.4511,"MEAN_ANOMALY":262.6795,"EPHEMERIS_TYPE":0,"CLASSIFICATION_TYPE":"U","NORAD_CAT_ID":56060,"ELEMENT_SET_NO":999,"REV_AT_EPOCH":12343,"BSTAR":-0.00023520373,"MEAN_MOTION_DOT":-8.4e-7,"MEAN_MOTION_DDOT":0},{"OBJECT_NAME":"ONEWEB-0566","OBJECT_ID":"2023-043R","EPOCH":"2025-09-26T14:57:36.174240","MEAN_MOTION":13.2182487,"ECCENTRICITY":0.00016673,"INCLINATION":87.9182,"RA_OF_ASC_NODE":296.5725,"ARG_OF_PERICENTER":101.7562,"MEAN_ANOMALY":258.3759,"EPHEMERIS_TYPE":0,"CLASSIFICATION_TYPE":"U","NORAD_CAT_ID":56061,"ELEMENT_SET_NO":999,"REV_AT_EPOCH":12341,"BSTAR":-0.00018924155,"MEAN_MOTION_DOT":-6.5e-7,"MEAN_MOTION_DDOT":0},{"OBJECT_NAME":"ONEWEB-0568","OBJECT_ID":"2023-043S","EPOCH":"2025-09-26T12:42:26.991648","MEAN_MOTION":13.16595468,"ECCENTRICITY":0.00021806,"INCLINATION":87.897,"RA_OF_ASC_NODE":281.308,"ARG_OF_PERICENTER":89.2915,"MEAN_ANOMALY":270.8466,"EPHEMERIS_TYPE":0,"CLASSIFICATION_TYPE":"U","NORAD_CAT_ID":56062,"ELEMENT_SET_NO":999,"REV_AT_EPOCH":12428,"BSTAR":-0.00012603024,"MEAN_MOTION_DOT":-3.5e-7,"MEAN_MOTION_DDOT":0},{"OBJECT_NAME":"ONEWEB-0574","OBJECT_ID":"2023-043T","EPOCH":"2025-09-26T14:48:31.199328","MEAN_MOTION":13.2182646,"ECCENTRICITY":0.00018802,"INCLINATION":87.9183,"RA_OF_ASC_NODE":296.5623,"ARG_OF_PERICENTER":87.8584,"MEAN_ANOMALY":272.2765,"EPHEMERIS_TYPE":0,"CLASSIFICATION_TYPE":"U","NORAD_CAT_ID":56063,"ELEMENT_SET_NO":999,"REV_AT_EPOCH":12345,"BSTAR":-0.00036743089,"MEAN_MOTION_DOT":-1.39e-6,"MEAN_MOTION_DDOT":0},{"OBJECT_NAME":"ONEWEB-0575","OBJECT_ID":"2023-043U","EPOCH":"2025-09-26T01:36:41.866272","MEAN_MOTION":13.16595877,"ECCENTRICITY":0.0002092,"INCLINATION":87.8967,"RA_OF_ASC_NODE":281.4043,"ARG_OF_PERICENTER":79.5409,"MEAN_ANOMALY":280.5958,"EPHEMERIS_TYPE":0,"CLASSIFICATION_TYPE":"U","NORAD_CAT_ID":56064,"ELEMENT_SET_NO":999,"REV_AT_EPOCH":12421,"BSTAR":-0.00015405574,"MEAN_MOTION_DOT":-4.6e-7,"MEAN_MOTION_DDOT":0}]
